[{"OBJECT_NAME":"ONEWEB-0598","OBJECT_ID":"2023-004Q","EPOCH":"2026-06-05T08:01:19.766784","MEAN_MOTION":13.11415556,"ECCENTRICITY":0.0001253,"INCLINATION":87.8885,"RA_OF_ASC_NODE":23.4291,"ARG_OF_PERICENTER":108.8564,"MEAN_ANOMALY":251.27,"EPHEMERIS_TYPE":0,"CLASSIFICATION_TYPE":"U","NORAD_CAT_ID":55154,"ELEMENT_SET_NO":999,"REV_AT_EPOCH":16434,"BSTAR":-0.00036029,"MEAN_MOTION_DOT":-1.15e-06,"MEAN_MOTION_DDOT":0.0},{"OBJECT_NAME":"ONEWEB-0599","OBJECT_ID":"2023-004R","EPOCH":"2026-06-05T11:34:56.955360","MEAN_MOTION":13.17647783,"ECCENTRICITY":0.00016,"INCLINATION":87.914,"RA_OF_ASC_NODE":8.193,"ARG_OF_PERICENTER":83.1318,"MEAN_ANOMALY":276.9995,"EPHEMERIS_TYPE":0,"CLASSIFICATION_TYPE":"U","NORAD_CAT_ID":55155,"ELEMENT_SET_NO":999,"REV_AT_EPOCH":16594,"BSTAR":5.4149000000000006e-05,"MEAN_MOTION_DOT":3.4e-07,"MEAN_MOTION_DDOT":0.0},{"OBJECT_NAME":"ONEWEB-0614","OBJECT_ID":"2023-004S","EPOCH":"2026-06-05T07:54:00.301824","MEAN_MOTION":13.11415624,"ECCENTRICITY":0.0002001,"INCLINATION":87.8896,"RA_OF_ASC_NODE":23.4376,"ARG_OF_PERICENTER":82.8837,"MEAN_ANOMALY":277.2519,"EPHEMERIS_TYPE":0,"CLASSIFICATION_TYPE":"U","NORAD_CAT_ID":55156,"ELEMENT_SET_NO":999,"REV_AT_EPOCH":16428,"BSTAR":0.00036744,"MEAN_MOTION_DOT":1.43e-06,"MEAN_MOTION_DDOT":0.0},{"OBJECT_NAME":"ONEWEB-0616","OBJECT_ID":"2023-004T","EPOCH":"2026-06-05T07:07:39.833184","MEAN_MOTION":13.17650384,"ECCENTRICITY":0.0001323,"INCLINATION":87.9143,"RA_OF_ASC_NODE":8.2334,"ARG_OF_PERICENTER":58.6241,"MEAN_ANOMALY":301.5019,"EPHEMERIS_TYPE":0,"CLASSIFICATION_TYPE":"U","NORAD_CAT_ID":55157,"ELEMENT_SET_NO":999,"REV_AT_EPOCH":16613,"BSTAR":4.2161e-05,"MEAN_MOTION_DOT":2.9e-07,"MEAN_MOTION_DDOT":0.0},{"OBJECT_NAME":"ONEWEB-0617","OBJECT_ID":"2023-004U","EPOCH":"2026-06-05T09:26:47.968800","MEAN_MOTION":13.11416375,"ECCENTRICITY":0.0002221,"INCLINATION":87.8903,"RA_OF_ASC_NODE":23.4155,"ARG_OF_PERICENTER":90.4817,"MEAN_ANOMALY":269.6566,"EPHEMERIS_TYPE":0,"CLASSIFICATION_TYPE":"U","NORAD_CAT_ID":55158,"ELEMENT_SET_NO":999,"REV_AT_EPOCH":16431,"BSTAR":0.0014033000000000001,"MEAN_MOTION_DOT":5.1e-06,"MEAN_MOTION_DDOT":0.0},{"OBJECT_NAME":"ONEWEB-0618","OBJECT_ID":"2023-004V","EPOCH":"2026-06-05T11:38:34.069056","MEAN_MOTION":15.13050047,"ECCENTRICITY":0.0011192,"INCLINATION":86.9095,"RA_OF_ASC_NODE":182.3855,"ARG_OF_PERICENTER":350.6392,"MEAN_ANOMALY":9.4637,"EPHEMERIS_TYPE":0,"CLASSIFICATION_TYPE":"U","NORAD_CAT_ID":55159,"ELEMENT_SET_NO":999,"REV_AT_EPOCH":18049,"BSTAR":0.00027857,"MEAN_MOTION_DOT":4.961e-05,"MEAN_MOTION_DDOT":0.0},{"OBJECT_NAME":"ONEWEB-0619","OBJECT_ID":"2023-004W","EPOCH":"2026-06-05T07:53:50.086752","MEAN_MOTION":13.17650635,"ECCENTRICITY":0.0002095,"INCLINATION":87.9143,"RA_OF_ASC_NODE":8.2082,"ARG_OF_PERICENTER":74.2822,"MEAN_ANOMALY":285.8541,"EPHEMERIS_TYPE":0,"CLASSIFICATION_TYPE":"U","NORAD_CAT_ID":55160,"ELEMENT_SET_NO":999,"REV_AT_EPOCH":16603,"BSTAR":-5.593e-05,"MEAN_MOTION_DOT":-9e-08,"MEAN_MOTION_DDOT":0.0},{"OBJECT_NAME":"ONEWEB-0620","OBJECT_ID":"2023-004X","EPOCH":"2026-06-05T00:10:07.651200","MEAN_MOTION":13.11417469,"ECCENTRICITY":0.0001723,"INCLINATION":87.8897,"RA_OF_ASC_NODE":23.5014,"ARG_OF_PERICENTER":93.1256,"MEAN_ANOMALY":267.0069,"EPHEMERIS_TYPE":0,"CLASSIFICATION_TYPE":"U","NORAD_CAT_ID":55161,"ELEMENT_SET_NO":999,"REV_AT_EPOCH":16423,"BSTAR":0.0016075,"MEAN_MOTION_DOT":5.82e-06,"MEAN_MOTION_DDOT":0.0},{"OBJECT_NAME":"ONEWEB-0621","OBJECT_ID":"2023-004Y","EPOCH":"2026-06-05T08:08:38.742720","MEAN_MOTION":13.11415856,"ECCENTRICITY":0.0002037,"INCLINATION":87.8908,"RA_OF_ASC_NODE":23.4228,"ARG_OF_PERICENTER":82.6433,"MEAN_ANOMALY":277.4926,"EPHEMERIS_TYPE":0,"CLASSIFICATION_TYPE":"U","NORAD_CAT_ID":55162,"ELEMENT_SET_NO":999,"REV_AT_EPOCH":16425,"BSTAR":-0.0007468500000000001,"MEAN_MOTION_DOT":-2.52e-06,"MEAN_MOTION_DDOT":0.0},{"OBJECT_NAME":"ONEWEB-0622","OBJECT_ID":"2023-004Z","EPOCH":"2026-06-05T08:15:58.408128","MEAN_MOTION":13.11415834,"ECCENTRICITY":0.0002401,"INCLINATION":87.8906,"RA_OF_ASC_NODE":23.4245,"ARG_OF_PERICENTER":96.0897,"MEAN_ANOMALY":264.0504,"EPHEMERIS_TYPE":0,"CLASSIFICATION_TYPE":"U","NORAD_CAT_ID":55163,"ELEMENT_SET_NO":999,"REV_AT_EPOCH":16424,"BSTAR":-0.001371,"MEAN_MOTION_DOT":-4.73e-06,"MEAN_MOTION_DDOT":0.0},{"OBJECT_NAME":"ONEWEB-0623","OBJECT_ID":"2023-004AA","EPOCH":"2026-06-05T07:46:32.405088","MEAN_MOTION":13.17648363,"ECCENTRICITY":0.0002611,"INCLINATION":87.9139,"RA_OF_ASC_NODE":8.2393,"ARG_OF_PERICENTER":85.8046,"MEAN_ANOMALY":274.3384,"EPHEMERIS_TYPE":0,"CLASSIFICATION_TYPE":"U","NORAD_CAT_ID":55164,"ELEMENT_SET_NO":999,"REV_AT_EPOCH":16602,"BSTAR":0.00010662,"MEAN_MOTION_DOT":5.4e-07,"MEAN_MOTION_DDOT":0.0},{"OBJECT_NAME":"ONEWEB-0624","OBJECT_ID":"2023-004AB","EPOCH":"2026-06-05T11:00:32.412672","MEAN_MOTION":13.12928122,"ECCENTRICITY":0.0001948,"INCLINATION":87.8947,"RA_OF_ASC_NODE":352.9201,"ARG_OF_PERICENTER":90.3008,"MEAN_ANOMALY":269.8344,"EPHEMERIS_TYPE":0,"CLASSIFICATION_TYPE":"U","NORAD_CAT_ID":55165,"ELEMENT_SET_NO":999,"REV_AT_EPOCH":16653,"BSTAR":0.0014006,"MEAN_MOTION_DOT":5.2e-06,"MEAN_MOTION_DDOT":0.0},{"OBJECT_NAME":"ONEWEB-0625","OBJECT_ID":"2023-004AC","EPOCH":"2026-06-05T07:31:57.993024","MEAN_MOTION":13.17650063,"ECCENTRICITY":0.0001785,"INCLINATION":87.9141,"RA_OF_ASC_NODE":8.2366,"ARG_OF_PERICENTER":83.2712,"MEAN_ANOMALY":276.8622,"EPHEMERIS_TYPE":0,"CLASSIFICATION_TYPE":"U","NORAD_CAT_ID":55166,"ELEMENT_SET_NO":999,"REV_AT_EPOCH":16601,"BSTAR":1.3919000000000002e-05,"MEAN_MOTION_DOT":1.8e-07,"MEAN_MOTION_DDOT":0.0},{"OBJECT_NAME":"ONEWEB-0626","OBJECT_ID":"2023-004AD","EPOCH":"2026-06-05T07:17:23.664768","MEAN_MOTION":13.1765104,"ECCENTRICITY":0.0001594,"INCLINATION":87.914,"RA_OF_ASC_NODE":8.2381,"ARG_OF_PERICENTER":100.142,"MEAN_ANOMALY":259.9891,"EPHEMERIS_TYPE":0,"CLASSIFICATION_TYPE":"U","NORAD_CAT_ID":55167,"ELEMENT_SET_NO":999,"REV_AT_EPOCH":16601,"BSTAR":-1.7447e-05,"MEAN_MOTION_DOT":6e-08,"MEAN_MOTION_DDOT":0.0},{"OBJECT_NAME":"ONEWEB-0627","OBJECT_ID":"2023-004AE","EPOCH":"2026-06-05T12:28:24.476736","MEAN_MOTION":13.17651059,"ECCENTRICITY":0.0002259,"INCLINATION":87.914,"RA_OF_ASC_NODE":8.1949,"ARG_OF_PERICENTER":85.2805,"MEAN_ANOMALY":274.8585,"EPHEMERIS_TYPE":0,"CLASSIFICATION_TYPE":"U","NORAD_CAT_ID":55168,"ELEMENT_SET_NO":999,"REV_AT_EPOCH":16604,"BSTAR":0.0011677999999999999,"MEAN_MOTION_DOT":4.66e-06,"MEAN_MOTION_DDOT":0.0},{"OBJECT_NAME":"ONEWEB-0628","OBJECT_ID":"2023-004AF","EPOCH":"2026-06-05T12:17:19.880160","MEAN_MOTION":13.12445037,"ECCENTRICITY":0.0002464,"INCLINATION":87.8946,"RA_OF_ASC_NODE":352.9753,"ARG_OF_PERICENTER":84.6275,"MEAN_ANOMALY":275.5134,"EPHEMERIS_TYPE":0,"CLASSIFICATION_TYPE":"U","NORAD_CAT_ID":55169,"ELEMENT_SET_NO":999,"REV_AT_EPOCH":16650,"BSTAR":-0.00047766999999999997,"MEAN_MOTION_DOT":-1.59e-06,"MEAN_MOTION_DDOT":0.0}]