ONEWEB-0598             
1 55154U 23004Q   26156.33425656 -.00000115  00000+0 -36029-3 0  9994
2 55154  87.8885  23.4291 0001253 108.8564 251.2700 13.11415556164347
ONEWEB-0599             
1 55155U 23004R   26156.48260365  .00000034  00000+0  54149-4 0  9997
2 55155  87.9140   8.1930 0001600  83.1318 276.9995 13.17647783165943
ONEWEB-0614             
1 55156U 23004S   26156.32917016  .00000143  00000+0  36744-3 0  9994
2 55156  87.8896  23.4376 0002001  82.8837 277.2519 13.11415624164286
ONEWEB-0616             
1 55157U 23004T   26156.29698881  .00000029  00000+0  42161-4 0  9991
2 55157  87.9143   8.2334 0001323  58.6241 301.5019 13.17650384166136
ONEWEB-0617             
1 55158U 23004U   26156.39361075  .00000510  00000+0  14033-2 0  9995
2 55158  87.8903  23.4155 0002221  90.4817 269.6566 13.11416375164314
ONEWEB-0618             
1 55159U 23004V   26156.48511654  .00004961  00000+0  27857-3 0  9999
2 55159  86.9095 182.3855 0011192 350.6392   9.4637 15.13050047180495
ONEWEB-0619             
1 55160U 23004W   26156.32905193 -.00000009  00000+0 -55930-4 0  9994
2 55160  87.9143   8.2082 0002095  74.2822 285.8541 13.17650635166038
ONEWEB-0620             
1 55161U 23004X   26156.00703300  .00000582  00000+0  16075-2 0  9995
2 55161  87.8897  23.5014 0001723  93.1256 267.0069 13.11417469164234
ONEWEB-0621             
1 55162U 23004Y   26156.33933730 -.00000252  00000+0 -74685-3 0  9992
2 55162  87.8908  23.4228 0002037  82.6433 277.4926 13.11415856164250
ONEWEB-0622             
1 55163U 23004Z   26156.34442602 -.00000473  00000+0 -13710-2 0  9993
2 55163  87.8906  23.4245 0002401  96.0897 264.0504 13.11415834164245
ONEWEB-0623             
1 55164U 23004AA  26156.32398617  .00000054  00000+0  10662-3 0  9995
2 55164  87.9139   8.2393 0002611  85.8046 274.3384 13.17648363166024
ONEWEB-0624             
1 55165U 23004AB  26156.45870848  .00000520  00000+0  14006-2 0  9994
2 55165  87.8947 352.9201 0001948  90.3008 269.8344 13.12928122166539
ONEWEB-0625             
1 55166U 23004AC  26156.31386566  .00000018  00000+0  13919-4 0  9995
2 55166  87.9141   8.2366 0001785  83.2712 276.8622 13.17650063166013
ONEWEB-0626             
1 55167U 23004AD  26156.30374612  .00000006  00000+0 -17447-4 0  9992
2 55167  87.9140   8.2381 0001594 100.1420 259.9891 13.17651040166019
ONEWEB-0627             
1 55168U 23004AE  26156.51972774  .00000466  00000+0  11678-2 0  9996
2 55168  87.9140   8.1949 0002259  85.2805 274.8585 13.17651059166047
ONEWEB-0628             
1 55169U 23004AF  26156.51203565 -.00000159  00000+0 -47767-3 0  9992
2 55169  87.8946 352.9753 0002464  84.6275 275.5134 13.12445037166507
